     3.03           N                                       RINEX VERSION / TYPE
MergeRinexNaviV1.0 Test and Assessment Research Center,CSNO PGM / RUN BY / DATE
BROADCAST CNAV1 and CNAV2 FROM BDS-3 B1C and B2a SIGNALS    COMMENT
iGMAS extented RINEX3 format for B-CNAV1 and B-CNAV2        COMMENT
2023/02/07_00:00:00 B1C          27  B2a         27         COMMENT
2023/02/07_01:00:00 B1C          27  B2a         27         COMMENT
2023/02/07_02:00:00 B1C          27  B2a         27         COMMENT
2023/02/07_03:00:00 B1C          27  B2a         27         COMMENT
2023/02/07_04:00:00 B1C          27  B2a         27         COMMENT
2023/02/07_05:00:00 B1C          27  B2a         27         COMMENT
2023/02/07_06:00:00 B1C          27  B2a         27         COMMENT
2023/02/07_07:00:00 B1C          27  B2a         27         COMMENT
2023/02/07_08:00:00 B1C          27  B2a         27         COMMENT
2023/02/07_09:00:00 B1C          27  B2a         27         COMMENT
2023/02/07_10:00:00 B1C          25  B2a         27         COMMENT
BDSA   0.2701E-07  0.2980E-06 -0.2146E-05  0.2980E-05 a C22 IONOSPHERIC CORR
BDSB   0.1270E+06 -0.2785E+06  0.7209E+06  0.1966E+06 a C22 IONOSPHERIC CORR
BDSA   0.2701E-07  0.2980E-06 -0.2146E-05  0.2980E-05 b C22 IONOSPHERIC CORR
BDSB   0.1270E+06 -0.2785E+06  0.7209E+06  0.1966E+06 b C22 IONOSPHERIC CORR
BDSA   0.2794E-07  0.3278E-06 -0.2325E-05  0.3338E-05 c C04 IONOSPHERIC CORR
BDSB   0.1331E+06 -0.3768E+06  0.1507E+07 -0.4587E+06 c C04 IONOSPHERIC CORR
BDSA   0.2794E-07  0.3278E-06 -0.2325E-05  0.3338E-05 d C39 IONOSPHERIC CORR
BDSB   0.1331E+06 -0.3768E+06  0.1507E+07 -0.4587E+06 d C39 IONOSPHERIC CORR
BDSA   0.2794E-07  0.3278E-06 -0.2325E-05  0.3338E-05 e C33 IONOSPHERIC CORR
BDSB   0.1331E+06 -0.3768E+06  0.1507E+07 -0.4587E+06 e C33 IONOSPHERIC CORR
BDSA   0.2794E-07  0.3278E-06 -0.2325E-05  0.3338E-05 f C35 IONOSPHERIC CORR
BDSB   0.1331E+06 -0.3604E+06  0.1376E+07 -0.3277E+06 f C35 IONOSPHERIC CORR
BDSA   0.2794E-07  0.3278E-06 -0.2325E-05  0.3338E-05 g C03 IONOSPHERIC CORR
BDSB   0.1331E+06 -0.3604E+06  0.1376E+07 -0.3277E+06 g C03 IONOSPHERIC CORR
BDSA   0.2980E-07  0.2906E-06 -0.2146E-05  0.3099E-05 h C04 IONOSPHERIC CORR
BDSB   0.1311E+06 -0.3277E+06  0.1180E+07 -0.1966E+06 h C04 IONOSPHERIC CORR
BDSA   0.2980E-07  0.2906E-06 -0.2146E-05  0.3099E-05 i C43 IONOSPHERIC CORR
BDSB   0.1311E+06 -0.3277E+06  0.1180E+07 -0.1966E+06 i C43 IONOSPHERIC CORR
BDSA   0.3166E-07  0.2608E-06 -0.2027E-05  0.2980E-05 j C04 IONOSPHERIC CORR
BDSB   0.1290E+06 -0.2621E+06  0.9830E+06 -0.6554E+05 j C04 IONOSPHERIC CORR
BDSA   0.3166E-07  0.2608E-06 -0.2027E-05  0.2980E-05 k C28 IONOSPHERIC CORR
BDSB   0.1290E+06 -0.2621E+06  0.9830E+06 -0.6554E+05 k C28 IONOSPHERIC CORR
BDS1   0.2662E+02 -0.2000E+01  0.1062E+02             a C36 IONOSPHERIC CORR
BDS2   0.9375E+01 -0.1013E+02  0.1000E+01             a C36 IONOSPHERIC CORR
BDS3   0.1250E+00  0.1875E+01  0.1625E+01             a C36 IONOSPHERIC CORR
BDS1   0.2650E+02 -0.1875E+01  0.1062E+02             b C37 IONOSPHERIC CORR
BDS2   0.9375E+01 -0.1000E+02  0.1000E+01             b C37 IONOSPHERIC CORR
BDS3   0.1250E+00  0.1875E+01  0.1625E+01             b C37 IONOSPHERIC CORR
BDS1   0.2650E+02 -0.1875E+01  0.1062E+02             c C36 IONOSPHERIC CORR
BDS2   0.9375E+01 -0.1000E+02  0.1000E+01             c C36 IONOSPHERIC CORR
BDS3   0.1250E+00  0.1875E+01  0.1625E+01             c C36 IONOSPHERIC CORR
BDS1   0.2650E+02 -0.1875E+01  0.1062E+02             d C39 IONOSPHERIC CORR
BDS2   0.9250E+01 -0.1013E+02  0.1000E+01             d C39 IONOSPHERIC CORR
BDS3   0.1250E+00  0.1750E+01  0.1500E+01             d C39 IONOSPHERIC CORR
BDS1   0.2650E+02 -0.1875E+01  0.1062E+02             e C33 IONOSPHERIC CORR
BDS2   0.9250E+01 -0.1013E+02  0.1000E+01             e C33 IONOSPHERIC CORR
BDS3   0.1250E+00  0.1750E+01  0.1500E+01             e C33 IONOSPHERIC CORR
BDS1   0.2650E+02 -0.1750E+01  0.1062E+02             f C35 IONOSPHERIC CORR
BDS2   0.9250E+01 -0.1013E+02  0.1000E+01             f C35 IONOSPHERIC CORR
BDS3   0.2500E+00  0.1750E+01  0.1500E+01             f C35 IONOSPHERIC CORR
BDS1   0.2650E+02 -0.1750E+01  0.1062E+02             g C36 IONOSPHERIC CORR
BDS2   0.9250E+01 -0.1013E+02  0.1000E+01             g C36 IONOSPHERIC CORR
BDS3   0.2500E+00  0.1750E+01  0.1500E+01             g C36 IONOSPHERIC CORR
BDS1   0.2650E+02 -0.1750E+01  0.1062E+02             h C29 IONOSPHERIC CORR
BDS2   0.9125E+01 -0.1013E+02  0.1125E+01             h C29 IONOSPHERIC CORR
BDS3   0.2500E+00  0.1750E+01  0.1375E+01             h C29 IONOSPHERIC CORR
BDS1   0.2650E+02 -0.1750E+01  0.1062E+02             i C43 IONOSPHERIC CORR
BDS2   0.9125E+01 -0.1013E+02  0.1125E+01             i C43 IONOSPHERIC CORR
BDS3   0.2500E+00  0.1750E+01  0.1375E+01             i C43 IONOSPHERIC CORR
BDS1   0.2625E+02 -0.1750E+01  0.1038E+02             j C32 IONOSPHERIC CORR
BDS2   0.9125E+01 -0.1013E+02  0.1000E+01             j C32 IONOSPHERIC CORR
BDS3   0.1250E+00  0.1625E+01  0.1250E+01             j C32 IONOSPHERIC CORR
BDS1   0.2625E+02 -0.1750E+01  0.1038E+02             k C28 IONOSPHERIC CORR
BDS2   0.9125E+01 -0.1013E+02  0.1000E+01             k C28 IONOSPHERIC CORR
BDS3   0.1250E+00  0.1625E+01  0.1250E+01             k C28 IONOSPHERIC CORR
BDS1   0.2662E+02 -0.2000E+01  0.1062E+02             x C19 IONOSPHERIC CORR
BDS2   0.9375E+01 -0.1013E+02  0.1000E+01             x C19 IONOSPHERIC CORR
BDS3   0.1250E+00  0.1875E+01  0.1625E+01             x C19 IONOSPHERIC CORR
                                                            END OF HEADER
C27 2023 02 07 07 00 00 0.931055983528E-04 0.564615021403E-11 0.000000000000E+00
     0.270000000000E+02 0.120734375000E+03 0.345192950100E-08 0.291419463609E+01
     0.588688999414E-05 0.617450918071E-03 0.108014792204E-04 0.889121093750E+02
     0.198000000000E+06 0.558793544769E-08-0.262228547301E+01-0.167638063431E-07
     0.964101423151E+00 0.144320312500E+03 0.100376486199E+01-0.658205988350E-08
     0.857178562071E-10 0.400000000000E+01 0.892000000000E+03-0.115876197815E-01
     0.214362727900E+10 0.000000000000E+00-0.161817297339E-07-0.267755240202E-08
     0.198000000000E+06 0.270000000000E+02 0.969191458884E-13 0.300000000000E+01
C28 2023 02 07 07 00 00 0.676751369610E-04 0.428101998296E-11 0.000000000000E+00
     0.270000000000E+02 0.101113281250E+03 0.358175633738E-08-0.323288630795E+00
     0.501051545143E-05 0.163412536494E-03 0.105574727058E-04 0.159046875000E+03
     0.198000000000E+06 0.931322574616E-09-0.262249479684E+01 0.130385160446E-07
     0.963980990615E+00 0.149093750000E+03-0.129889107116E+01-0.660616803056E-08
     0.998255867078E-10 0.400000000000E+01 0.892000000000E+03 0.472545623779E-02
     0.214362727900E+10 0.000000000000E+00-0.166473910213E-07-0.267755240202E-08
     0.198000000000E+06 0.270000000000E+02-0.518166463735E-13 0.300000000000E+01
C29 2023 02 07 07 00 00 0.777923269197E-04 0.508215691752E-11 0.000000000000E+00
     0.270000000000E+02 0.100097656250E+03 0.344746502933E-08 0.157157964335E+01
     0.491924583912E-05 0.176758156158E-03 0.124387443066E-04 0.471015625000E+02
     0.198000000000E+06-0.102445483208E-07-0.266151084835E+01-0.931322574616E-09
     0.962434697177E+00 0.108128906250E+03 0.786288938605E+00-0.658438140877E-08
     0.610739725475E-10 0.400000000000E+01 0.892000000000E+03-0.382804870606E-02
     0.190770278500E+10 0.000000000000E+00-0.166473910213E-07-0.273576006293E-08
     0.198099000000E+06 0.270000000000E+02 0.292108986708E-13 0.300000000000E+01
C30 2023 02 07 07 00 00 0.118097523227E-05-0.897060203897E-13 0.000000000000E+00
     0.270000000000E+02 0.113859375000E+03 0.345425102628E-08 0.289144199628E+01
     0.554416328669E-05 0.532085541636E-03 0.121109187603E-04 0.305957031250E+02
     0.198000000000E+06-0.931322574616E-08-0.266100356980E+01 0.000000000000E+00
     0.962383792748E+00 0.115757812500E+03 0.281933224793E+00-0.656366626019E-08
     0.512521348571E-10 0.400000000000E+01 0.892000000000E+03 0.392770767212E-02
     0.214362727900E+10 0.000000000000E+00-0.171130523086E-07-0.267755240202E-08
     0.198000000000E+06 0.270000000000E+02-0.378433732034E-13 0.300000000000E+01
C32 2023 02 07 07 00 00-0.628538662568E-03 0.102389208223E-10 0.000000000000E+00
     0.270000000000E+02-0.134488281250E+03 0.374783468379E-08 0.309886546272E+01
    -0.654999166727E-05 0.557515304536E-03 0.576488673687E-05 0.137208984375E+03
     0.198000000000E+06-0.363215804100E-07-0.547672892957E+00 0.800937414169E-07
     0.971098164605E+00 0.247578125000E+03-0.126393138866E+01-0.695189671726E-08
    -0.364300888880E-09 0.400000000000E+01 0.892000000000E+03-0.939178466797E-02
     0.214362726400E+10 0.000000000000E+00-0.106520019472E-07-0.273576006293E-08
     0.198000000000E+06 0.270000000000E+02 0.866953313536E-13 0.300000000000E+01
C33 2023 02 07 07 00 00-0.874768593349E-03 0.234834374169E-11 0.000000000000E+00
     0.270000000000E+02-0.120617187500E+03 0.371319038357E-08-0.217456149707E+01
    -0.601168721914E-05 0.342214072589E-03 0.536162406206E-05 0.941992187500E+02
     0.198000000000E+06-0.437721610069E-07-0.547805354338E+00-0.493600964546E-07
     0.971130498020E+00 0.256812500000E+03-0.698711330234E+00-0.691118073556E-08
    -0.353943314588E-09 0.400000000000E+01 0.892000000000E+03 0.191307067871E-02
     0.190769767900E+10 0.000000000000E+00 0.266009010374E-07-0.267755240202E-08
     0.198000000000E+06 0.270000000000E+02-0.148888386509E-13 0.300000000000E+01
C34 2023 02 07 07 00 00 0.100691686384E-03 0.821653856065E-11 0.000000000000E+00
     0.270000000000E+02 0.788750000000E+02 0.349961005852E-08-0.497782183586E+00
     0.397488474846E-05 0.593160570133E-03 0.108480453491E-04 0.659335937500E+02
     0.198000000000E+06 0.931322574616E-08-0.265899103194E+01-0.372529029846E-08
     0.960538979173E+00 0.141359375000E+03 0.476626476857E+00-0.661223971204E-08
     0.496449250533E-10 0.400000000000E+01 0.892000000000E+03-0.667142868042E-02
     0.214257869000E+10 0.000000000000E+00-0.161235220730E-07-0.279396772385E-08
     0.198012000000E+06 0.270000000000E+02 0.580512113137E-13 0.300000000000E+01
